BEIDOU-2 G7             
1 41586U 16037A   22231.52399124 -.00000360  00000+0  00000+0 0  9994
2 41586   1.5104  67.1978 0008027 358.9920 200.7865  1.00272986 22779
BEIDOU-3 M1             
1 43001U 17069A   22231.25316343 -.00000058  00000+0  00000+0 0  9990
2 43001  55.5875 109.5805 0009449 298.1473 293.4959  1.86231749 32561
BEIDOU-3 M2             
1 43002U 17069B   22230.55843152 -.00000055  00000+0  00000+0 0  9993
2 43002  55.5868 109.6398 0008121 322.7210 206.0748  1.86231374 32549
BEIDOU-3 M3             
1 43107U 18003A   22230.61408078 -.00000120  00000+0  00000+0 0  9992
2 43107  55.2960 350.5465 0004877  70.9734 301.3487  1.86232528 31319
BEIDOU-3 M4             
1 43108U 18003B   22231.59615120 -.00000121  00000+0  00000+0 0  9990
2 43108  55.2887 350.5016 0002750 228.2276 126.0551  1.86230775 31324
BEIDOU-3 M5             
1 43207U 18018A   22230.97552609 -.00000057  00000+0  00000+0 0  9997
2 43207  55.5456 109.7012 0005882 350.9472   9.1087  1.86231673 30703
BEIDOU-3 M6             
1 43208U 18018B   22231.04220168 -.00000057  00000+0  00000+0 0  9999
2 43208  55.5460 109.7046 0007618 312.2088  47.7951  1.86231562 30704
BEIDOU-3 M7             
1 43245U 18029A   22231.28099253 -.00000121  00000+0  00000+0 0  9999
2 43245  55.2063 348.2880 0001000 130.3117 239.6155  1.86232712 29869
BEIDOU-3 M8             
1 43246U 18029B   22230.78363617 -.00000121  00000+0  10000-3 0  9997
2 43246  55.2033 348.3345 0003148  12.4824  70.5731  1.86232947 29844
BEIDOU IGSO-7           
1 43539U 18057A   22231.61118938 -.00000129  00000+0  00000+0 0  9993
2 43539  55.0898 175.1727 0052721 228.9377 256.6212  1.00291447 15149
BEIDOU-3 M9             
1 43581U 18062A   22231.39511088  .00000073  00000+0  00000+0 0  9991
2 43581  54.2611 229.9289 0006021 271.0829  73.1223  1.86231898 27598
BEIDOU-3 M10            
1 43582U 18062B   22231.53479223  .00000074  00000+0  00000+0 0  9993
2 43582  54.2607 229.9142 0004816 335.9099 193.7858  1.86232254 27603
BEIDOU-3 M11            
1 43602U 18067A   22231.48387906  .00000074  00000+0  00000+0 0  9991
2 43602  54.3436 228.5361 0006644   0.1491 176.7041  1.86231617 27093
BEIDOU-3 M12            
1 43603U 18067B   22231.43442450  .00000074  00000+0  00000+0 0  9993
2 43603  54.3406 228.5043 0004032 340.5171  73.5414  1.86231561 27112
BEIDOU-3 M13            
1 43622U 18072A   22231.11219120 -.00000057  00000+0  00000+0 0  9993
2 43622  55.5137 109.2507 0006115 297.2733 289.8646  1.86231872 26611
BEIDOU-3 M14            
1 43623U 18072B   22231.36268642 -.00000058  00000+0  00000+0 0  9995
2 43623  55.5159 109.2336 0004349 328.0808 157.2401  1.86231904 26623
BEIDOU-3 M15            
1 43647U 18078A   22231.36256010 -.00000121  00000+0  10000-3 0  9999
2 43647  55.1013 348.4394 0005527  13.3854   7.4533  1.86232679 26137
